[{"OBJECT_NAME":"STARLINK-5896","OBJECT_ID":"2023-037S","EPOCH":"2026-03-09T23:17:26.832480","MEAN_MOTION":14.98332887,"ECCENTRICITY":0.00026752,"INCLINATION":70.0007,"RA_OF_ASC_NODE":283.6953,"ARG_OF_PERICENTER":261.1258,"MEAN_ANOMALY":98.9598,"EPHEMERIS_TYPE":0,"CLASSIFICATION_TYPE":"U","NORAD_CAT_ID":55930,"ELEMENT_SET_NO":999,"REV_AT_EPOCH":16402,"BSTAR":0.00045394932,"MEAN_MOTION_DOT":5.328e-5,"MEAN_MOTION_DDOT":0},{"OBJECT_NAME":"CZ-6A DEB","OBJECT_ID":"2022-151WD","EPOCH":"2026-03-09T18:15:50.585760","MEAN_MOTION":14.95909888,"ECCENTRICITY":0.00406186,"INCLINATION":98.6454,"RA_OF_ASC_NODE":143.7847,"ARG_OF_PERICENTER":193.5421,"MEAN_ANOMALY":166.4711,"EPHEMERIS_TYPE":0,"CLASSIFICATION_TYPE":"U","NORAD_CAT_ID":55212,"ELEMENT_SET_NO":999,"REV_AT_EPOCH":17107,"BSTAR":0.0046813987,"MEAN_MOTION_DOT":0.00053565,"MEAN_MOTION_DDOT":0}]
